{
  "type": "FeatureCollection",
  "features": [
    {
      "type": "Feature",
      "properties": {
        "norad_id": 66689,
        "name": "TRANSPORTER-15 Z",
        "group": "last-30-days",
        "lat": -36.92398147730295,
        "lon": -118.0864934925928,
        "alt_km": 512.6700517998279,
        "timestamp": "2025-12-21T22:41:40.164259+00:00",
        "meta_object_name": "TRANSPORTER-15 Z",
        "meta_object_id": "2025-276Z",
        "meta_epoch": "2025-12-21T05:55:52.013856",
        "meta_mean_motion": 15.18560021,
        "meta_eccentricity": 0.0003325,
        "meta_inclination": 97.4422,
        "meta_ra_of_asc_node": 66.8629,
        "meta_arg_of_pericenter": 280.5478,
        "meta_mean_anomaly": 79.5382,
        "meta_ephemeris_type": 0,
        "meta_classification_type": "U",
        "meta_norad_cat_id": 66689,
        "meta_element_set_no": 999,
        "meta_rev_at_epoch": 341,
        "meta_bstar": 0.031229,
        "meta_mean_motion_dot": 0.00690544,
        "meta_mean_motion_ddot": 0,
        "tle_line1": "1 66689U 25276Z   25355.24712979  .00690544  00000+0  31229-1 0  9993",
        "tle_line2": "2 66689  97.4422  66.8629 0003325 280.5478  79.5382 15.18560021  3410"
      },
      "geometry": {
        "type": "Point",
        "coordinates": [
          -118.0864934925928,
          -36.92398147730295
        ]
      }
    },
    {
      "type": "Feature",
      "properties": {
        "norad_id": 66690,
        "name": "TRANSPORTER-15 AA",
        "group": "last-30-days",
        "lat": -12.52714509003352,
        "lon": -114.13143068138307,
        "alt_km": 518.1904645108534,
        "timestamp": "2025-12-21T22:41:40.164269+00:00",
        "meta_object_name": "TRANSPORTER-15 AA",
        "meta_object_id": "2025-276AA",
        "meta_epoch": "2025-12-21T12:20:59.972064",
        "meta_mean_motion": 15.17043176,
        "meta_eccentricity": 0.00035324,
        "meta_inclination": 97.4399,
        "meta_ra_of_asc_node": 67.1093,
        "meta_arg_of_pericenter": 256.4121,
        "meta_mean_anomaly": 103.6719,
        "meta_ephemeris_type": 0,
        "meta_classification_type": "U",
        "meta_norad_cat_id": 66690,
        "meta_element_set_no": 999,
        "meta_rev_at_epoch": 345,
        "meta_bstar": 0.00041394127,
        "meta_mean_motion_dot": 8.127e-05,
        "meta_mean_motion_ddot": 0,
        "tle_line1": "1 66690U 25276AA  25355.51458301  .00008127  00000+0  41394-3 0  9997",
        "tle_line2": "2 66690  97.4399  67.1093 0003532 256.4121 103.6719 15.17043176  3454"
      },
      "geometry": {
        "type": "Point",
        "coordinates": [
          -114.13143068138307,
          -12.52714509003352
        ]
      }
    },
    {
      "type": "Feature",
      "properties": {
        "norad_id": 66691,
        "name": "TRANSPORTER-15 AB",
        "group": "last-30-days",
        "lat": -22.586880989384312,
        "lon": -115.5733119815035,
        "alt_km": 517.9975639675413,
        "timestamp": "2025-12-21T22:41:40.164280+00:00",
        "meta_object_name": "TRANSPORTER-15 AB",
        "meta_object_id": "2025-276AB",
        "meta_epoch": "2025-12-21T10:43:26.556096",
        "meta_mean_motion": 15.1726404,
        "meta_eccentricity": 0.0003683,
        "meta_inclination": 97.4425,
        "meta_ra_of_asc_node": 67.054,
        "meta_arg_of_pericenter": 255.9731,
        "meta_mean_anomaly": 104.1093,
        "meta_ephemeris_type": 0,
        "meta_classification_type": "U",
        "meta_norad_cat_id": 66691,
        "meta_element_set_no": 999,
        "meta_rev_at_epoch": 344,
        "meta_bstar": 0.00043213842,
        "meta_mean_motion_dot": 8.542e-05,
        "meta_mean_motion_ddot": 0,
        "tle_line1": "1 66691U 25276AB  25355.44683514  .00008542  00000+0  43214-3 0  9990",
        "tle_line2": "2 66691  97.4425  67.0540 0003683 255.9731 104.1093 15.17264040  3444"
      },
      "geometry": {
        "type": "Point",
        "coordinates": [
          -115.5733119815035,
          -22.586880989384312
        ]
      }
    },
    {
      "type": "Feature",
      "properties": {
        "norad_id": 66692,
        "name": "TRANSPORTER-15 AC",
        "group": "last-30-days",
        "lat": -39.52233063123349,
        "lon": -118.63767989755384,
        "alt_km": 518.7676380140947,
        "timestamp": "2025-12-21T22:41:40.164305+00:00",
        "meta_object_name": "TRANSPORTER-15 AC",
        "meta_object_id": "2025-276AC",
        "meta_epoch": "2025-12-21T12:13:57.989280",
        "meta_mean_motion": 15.17429936,
        "meta_eccentricity": 0.00024413,
        "meta_inclination": 97.4441,
        "meta_ra_of_asc_node": 67.1264,
        "meta_arg_of_pericenter": 194.7593,
        "meta_mean_anomaly": 165.357,
        "meta_ephemeris_type": 0,
        "meta_classification_type": "U",
        "meta_norad_cat_id": 66692,
        "meta_element_set_no": 999,
        "meta_rev_at_epoch": 345,
        "meta_bstar": -0.0018738901,
        "meta_mean_motion_dot": -0.00037331,
        "meta_mean_motion_ddot": 0,
        "tle_line1": "1 66692U 25276AC  25355.50969895 -.00037331  00000+0 -18739-2 0  9990",
        "tle_line2": "2 66692  97.4441  67.1264 0002441 194.7593 165.3570 15.17429936  3451"
      },
      "geometry": {
        "type": "Point",
        "coordinates": [
          -118.63767989755384,
          -39.52233063123349
        ]
      }
    },
    {
      "type": "Feature",
      "properties": {
        "norad_id": 66693,
        "name": "TRANSPORTER-15 AD",
        "group": "last-30-days",
        "lat": -37.99751414795606,
        "lon": -118.32213543719216,
        "alt_km": 518.5949401073958,
        "timestamp": "2025-12-21T22:41:40.164317+00:00",
        "meta_object_name": "TRANSPORTER-15 AD",
        "meta_object_id": "2025-276AD",
        "meta_epoch": "2025-12-21T10:39:28.123200",
        "meta_mean_motion": 15.17559883,
        "meta_eccentricity": 0.00032631,
        "meta_inclination": 97.438,
        "meta_ra_of_asc_node": 67.0431,
        "meta_arg_of_pericenter": 281.5978,
        "meta_mean_anomaly": 78.4889,
        "meta_ephemeris_type": 0,
        "meta_classification_type": "U",
        "meta_norad_cat_id": 66693,
        "meta_element_set_no": 999,
        "meta_rev_at_epoch": 344,
        "meta_bstar": 0.00057542599,
        "meta_mean_motion_dot": 0.00011497,
        "meta_mean_motion_ddot": 0,
        "tle_line1": "1 66693U 25276AD  25355.44407550  .00011497  00000+0  57543-3 0  9999",
        "tle_line2": "2 66693  97.4380  67.0431 0003263 281.5978  78.4889 15.17559883  3445"
      },
      "geometry": {
        "type": "Point",
        "coordinates": [
          -118.32213543719216,
          -37.99751414795606
        ]
      }
    },
    {
      "type": "Feature",
      "properties": {
        "norad_id": 66694,
        "name": "YAM-9",
        "group": "last-30-days",
        "lat": -47.790661838838815,
        "lon": -120.7318101197526,
        "alt_km": 519.4197061562991,
        "timestamp": "2025-12-21T22:41:40.164327+00:00",
        "meta_object_name": "YAM-9",
        "meta_object_id": "2025-276AE",
        "meta_epoch": "2025-12-21T13:46:44.557248",
        "meta_mean_motion": 15.17540477,
        "meta_eccentricity": 0.00014231,
        "meta_inclination": 97.442,
        "meta_ra_of_asc_node": 67.1889,
        "meta_arg_of_pericenter": 273.5984,
        "meta_mean_anomaly": 86.5087,
        "meta_ephemeris_type": 0,
        "meta_classification_type": "U",
        "meta_norad_cat_id": 66694,
        "meta_element_set_no": 999,
        "meta_rev_at_epoch": 346,
        "meta_bstar": 0.00066367857,
        "meta_mean_motion_dot": 0.00013265,
        "meta_mean_motion_ddot": 0,
        "tle_line1": "1 66694U 25276AE  25355.57412682  .00013265  00000+0  66368-3 0  9996",
        "tle_line2": "2 66694  97.4420  67.1889 0001423 273.5984  86.5087 15.17540477  3464"
      },
      "geometry": {
        "type": "Point",
        "coordinates": [
          -120.7318101197526,
          -47.790661838838815
        ]
      }
    },
    {
      "type": "Feature",
      "properties": {
        "norad_id": 66695,
        "name": "IRIDE FM1",
        "group": "last-30-days",
        "lat": -74.63381360819943,
        "lon": 95.9694662886295,
        "alt_km": 519.1360272293468,
        "timestamp": "2025-12-21T22:41:40.164337+00:00",
        "meta_object_name": "IRIDE FM1",
        "meta_object_id": "2025-276AF",
        "meta_epoch": "2025-12-21T13:32:25.518336",
        "meta_mean_motion": 15.18228003,
        "meta_eccentricity": 0.00012458,
        "meta_inclination": 97.4409,
        "meta_ra_of_asc_node": 67.1973,
        "meta_arg_of_pericenter": 148.0362,
        "meta_mean_anomaly": 212.0948,
        "meta_ephemeris_type": 0,
        "meta_classification_type": "U",
        "meta_norad_cat_id": 66695,
        "meta_element_set_no": 999,
        "meta_rev_at_epoch": 346,
        "meta_bstar": 0.0004713442,
        "meta_mean_motion_dot": 9.585e-05,
        "meta_mean_motion_ddot": 0,
        "tle_line1": "1 66695U 25276AF  25355.56418424  .00009585  00000+0  47134-3 0  9996",
        "tle_line2": "2 66695  97.4409  67.1973 0001245 148.0362 212.0948 15.18228003  3465"
      },
      "geometry": {
        "type": "Point",
        "coordinates": [
          95.9694662886295,
          -74.63381360819943
        ]
      }
    }
  ]
}